[{"OBJECT_NAME":"STARLINK-33980","OBJECT_ID":"2025-098E","EPOCH":"2026-03-09T22:14:12.592032","MEAN_MOTION":14.98335538,"ECCENTRICITY":0.00028504,"INCLINATION":70.0008,"RA_OF_ASC_NODE":274.0325,"ARG_OF_PERICENTER":267.4615,"MEAN_ANOMALY":92.6217,"EPHEMERIS_TYPE":0,"CLASSIFICATION_TYPE":"U","NORAD_CAT_ID":63930,"ELEMENT_SET_NO":999,"REV_AT_EPOCH":4660,"BSTAR":0.00027954242,"MEAN_MOTION_DOT":3.244e-5,"MEAN_MOTION_DDOT":0},{"OBJECT_NAME":"SKYCRAFT-4B","OBJECT_ID":"2025-154D","EPOCH":"2026-03-09T23:31:04.324224","MEAN_MOTION":14.96290027,"ECCENTRICITY":0.00045249,"INCLINATION":97.6762,"RA_OF_ASC_NODE":135.4663,"ARG_OF_PERICENTER":218.6003,"MEAN_ANOMALY":141.4895,"EPHEMERIS_TYPE":0,"CLASSIFICATION_TYPE":"U","NORAD_CAT_ID":64872,"ELEMENT_SET_NO":999,"REV_AT_EPOCH":3420,"BSTAR":0.00083632264,"MEAN_MOTION_DOT":9.402e-5,"MEAN_MOTION_DDOT":0}]
